H1 CPF 01  gfz 2021 04 23 12  6132 tandemx   
H2 1003001  6202 36605    2021 04 23 12 59 42 2021 04 28 00 00 42   120 1 1  0 0 0
H9
10 0 59330  69102.000000  0    1582546.164    417496.860  -6698413.201
10 0 59330  69222.000000  0    2410924.276    101352.023  -6459369.030
10 0 59330  69342.000000  0    3191861.666   -230630.140  -6107616.770
10 0 59330  69462.000000  0    3911570.964   -571744.562  -5649219.264
10 0 59330  69582.000000  0    4557416.284   -914886.368  -5092093.628
10 0 59330  69702.000000  0    5118139.011  -1252693.762  -4445887.276
10 0 59330  69822.000000  0    5584061.607  -1577700.931  -3721821.590
10 0 59330  69942.000000  0    5947264.489  -1882497.603  -2932506.115
10 0 59330  70062.000000  0    6201732.247  -2159892.527  -2091725.010
10 0 59330  70182.000000  0    6343464.728  -2403076.987  -1214198.561
10 0 59330  70302.000000  0    6370549.842  -2605783.815   -315324.441
10 0 59330  70422.000000  0    6283195.867  -2762438.456    589096.983
10 0 59330  70542.000000  0    6083721.647  -2868297.511   1483147.606
10 0 59330  70662.000000  0    5776503.788  -2919571.289   2351081.476
10 0 59330  70782.000000  0    5367881.109  -2913527.173   3177610.823
10 0 59330  70902.000000  0    4866020.270  -2848570.248   3948183.254
10 0 59330  71022.000000  0    4280746.213  -2724299.288   4649241.726
10 0 59330  71142.000000  0    3623343.834  -2541539.076   5268465.758
10 0 59330  71262.000000  0    2906331.147  -2302346.592   5794988.290
10 0 59330  71382.000000  0    2143213.328  -2009990.519   6219582.194
10 0 59330  71502.000000  0    1348222.979  -1668906.496   6534816.695
10 0 59330  71622.000000  0     536050.911  -1284628.614   6735181.610
10 0 59330  71742.000000  0    -278427.290   -863698.068   6817177.732
10 0 59330  71862.000000  0   -1080423.386   -413550.798   6779373.318
10 0 59330  71982.000000  0   -1855503.741     57613.658   6622427.284
10 0 59330  72102.000000  0   -2589848.025    540981.119   6349078.575
10 0 59330  72222.000000  0   -3270495.649   1027286.773   5964101.839
10 0 59330  72342.000000  0   -3885576.478   1506991.610   5474229.723
10 0 59330  72462.000000  0   -4424522.666   1970468.763   4888041.766
10 0 59330  72582.000000  0   -4878257.281   2408196.801   4215819.686
10 0 59330  72702.000000  0   -5239354.232   2810956.057   3469370.393
10 0 59330  72822.000000  0   -5502166.831   3170022.851   2661820.533
10 0 59330  72942.000000  0   -5662922.719   3477358.255   1807385.681
10 0 59330  73062.000000  0   -5719782.784   3725787.459    921116.298
10 0 59330  73182.000000  0   -5672859.631   3909162.985     18624.998
10 0 59330  73302.000000  0   -5524196.906   4022508.274   -884196.291
10 0 59330  73422.000000  0   -5277710.107   4062138.676  -1771465.157
10 0 59330  73542.000000  0   -4939088.948   4025756.073  -2627598.044
10 0 59330  73662.000000  0   -4515663.412   3912513.746  -3437590.622
10 0 59330  73782.000000  0   -4016239.253   3723051.085  -4187283.758
10 0 59330  73902.000000  0   -3450907.863   3459498.455  -4863609.287
10 0 59330  74022.000000  0   -2830835.501   3125452.334  -5454811.960
10 0 59330  74142.000000  0   -2168039.160   2725922.847  -5950644.854
10 0 59330  74262.000000  0   -1475150.674   2267254.412  -6342537.715
10 0 59330  74382.000000  0    -765175.082   1757020.589  -6623732.936
10 0 59330  74502.000000  0     -51249.399   1203897.645  -6789390.668
10 0 59330  74622.000000  0     653595.148    617517.618  -6836662.775
10 0 59330  74742.000000  0    1336665.050      8304.028  -6764738.003
10 0 59330  74862.000000  0    1985828.715   -612709.832  -6574853.765
10 0 59330  74982.000000  0    2589726.286  -1234075.371  -6270276.505
10 0 59330  75102.000000  0    3137965.493  -1844134.362  -5856251.768
10 0 59330  75222.000000  0    3621299.466  -2431232.259  -5339923.860
10 0 59330  75342.000000  0    4031786.458  -2983939.332  -4730224.751
10 0 59330  75462.000000  0    4362924.511  -3491273.446  -4037729.089
10 0 59330  75582.000000  0    4609759.587  -3942918.850  -3274481.013
10 0 59330  75702.000000  0    4768966.978  -4329438.770  -2453793.151
10 0 59330  75822.000000  0    4838901.801  -4642476.131  -1590018.554
10 0 59330  75942.000000  0    4819616.988  -4874937.850   -698300.235
10 0 59330  76062.000000  0    4712846.281  -5021157.211    205698.306
10 0 59330  76182.000000  0    4521952.969  -5077028.886   1106074.747
10 0 59330  76302.000000  0    4251845.966  -5040113.522   1986976.681
10 0 59330  76422.000000  0    3908863.067  -4909708.096   2832889.511
10 0 59330  76542.000000  0    3500627.111  -4686882.051   3628917.303
10 0 59330  76662.000000  0    3035877.002  -4374476.674   4361051.561
10 0 59330  76782.000000  0    2524278.909  -3977068.219   5016421.122
10 0 59330  76902.000000  0    1976222.566  -3500896.570   5583518.765
10 0 59330  77022.000000  0    1402607.169  -2953761.437   6052401.525
10 0 59330  77142.000000  0     814621.679  -2344887.892   6414859.970
10 0 59330  77262.000000  0     223524.895  -1684766.211   6664555.576
10 0 59330  77382.000000  0    -359570.321   -984968.296   6797125.237
10 0 59330  77502.000000  0    -923904.880   -257942.844   6810253.450
10 0 59330  77622.000000  0   -1459271.109    483206.521   6703709.965
10 0 59330  77742.000000  0   -1956196.878   1224956.973   6479353.441
10 0 59330  77862.000000  0   -2406113.220   1953612.318   6141101.035
10 0 59330  77982.000000  0   -2801503.023   2655555.396   5694864.324
10 0 59330  78102.000000  0   -3136028.577   3317503.803   5148452.325
10 0 59330  78222.000000  0   -3404636.758   3926763.937   4511441.152
10 0 59330  78342.000000  0   -3603638.543   4471479.363   3795011.517
10 0 59330  78462.000000  0   -3730761.239   4940867.901   3011755.567
10 0 59330  78582.000000  0   -3785171.922   5325442.074   2175455.494
10 0 59330  78702.000000  0   -3767470.812   5617206.056   1300837.739
10 0 59330  78822.000000  0   -3679655.397   5809825.400    403309.372
10 0 59330  78942.000000  0   -3525056.878   5898767.017   -501320.425
10 0 59330  79062.000000  0   -3308248.007   5881402.253  -1397129.317
10 0 59330  79182.000000  0   -3034925.591   5757070.293  -2268372.610
10 0 59330  79302.000000  0   -2711768.712   5527100.102  -3099767.530
10 0 59330  79422.000000  0   -2346280.908   5194793.706  -3876764.345
10 0 59330  79542.000000  0   -1946619.407   4765370.285  -4585801.986
10 0 59330  79662.000000  0   -1521414.829   4245873.018  -5214540.047
10 0 59330  79782.000000  0   -1079587.595   3645044.516  -5752065.923
10 0 59330  79902.000000  0    -630163.128   2973171.600  -6189076.013
10 0 59330  80022.000000  0    -182089.868   2241901.963  -6518025.985
10 0 59330  80142.000000  0     255935.007   1464039.308  -6733248.702
10 0 59330  80262.000000  0     675629.419    653320.013  -6831042.622
10 0 59330  80382.000000  0    1069279.232   -175825.866  -6809728.711
10 0 59330  80502.000000  0    1429876.296  -1008526.708  -6669675.354
10 0 59330  80622.000000  0    1751239.601  -1829729.085  -6413291.305
10 0 59330  80742.000000  0    2028119.426  -2624462.417  -6044989.244
10 0 59330  80862.000000  0    2256282.834  -3378106.435  -5571119.254
10 0 59330  80982.000000  0    2432579.484  -4076660.072  -4999870.944
10 0 59330  81102.000000  0    2554985.569  -4707003.054  -4341141.081
10 0 59330  81222.000000  0    2622625.108  -5257145.056  -3606372.936
10 0 59330  81342.000000  0    2635768.161  -5716461.515  -2808367.515
10 0 59330  81462.000000  0    2595805.955  -6075908.504  -1961066.370
10 0 59330  81582.000000  0    2505203.179  -6328211.913  -1079310.732
10 0 59330  81702.000000  0    2367426.995  -6468024.893   -178578.617
10 0 59330  81822.000000  0    2186853.808  -6492046.681    725293.031
10 0 59330  81942.000000  0    1968657.637  -6399102.657   1616393.539
10 0 59330  82062.000000  0    1718682.014  -6190181.783   2479028.962
10 0 59330  82182.000000  0    1443297.413  -5868428.245   3298007.279
10 0 59330  82302.000000  0    1149250.117  -5439090.565   4058912.499
10 0 59330  82422.000000  0     843505.284  -4909429.020   4748362.159
10 0 59330  82542.000000  0     533088.388  -4288585.396   5354244.678
10 0 59330  82662.000000  0     224928.261  -3587415.260   5865931.817
10 0 59330  82782.000000  0     -74292.874  -2818287.757   6274460.979
10 0 59330  82902.000000  0    -358280.639  -1994860.094   6572685.081
10 0 59330  83022.000000  0    -621257.655  -1131831.697   6755391.151
10 0 59330  83142.000000  0    -858078.757   -244680.054   6819387.212
10 0 59330  83262.000000  0   -1064330.450    650618.034   6763555.221
10 0 59330  83382.000000  0   -1236412.697   1537874.120   6588869.089
10 0 59330  83502.000000  0   -1371601.476   2400980.127   6298378.624
10 0 59330  83622.000000  0   -1468092.044   3224200.763   5897159.737
10 0 59330  83742.000000  0   -1525022.067   3992461.920   5392230.574
10 0 59330  83862.000000  0   -1542473.370   4691630.199   4792435.239
10 0 59330  83982.000000  0   -1521453.701   5308779.914   4108294.790
10 0 59330  84102.000000  0   -1463857.209   5832440.289   3351826.171
10 0 59330  84222.000000  0   -1372406.212   6252817.634   2536333.363
10 0 59330  84342.000000  0   -1250574.872   6561988.960   1676171.971
10 0 59330  84462.000000  0   -1102493.567   6754059.884    786491.542
10 0 59330  84582.000000  0    -932839.139   6825282.371   -117037.601
10 0 59330  84702.000000  0    -746713.175   6774131.875  -1018508.453
10 0 59330  84822.000000  0    -549510.807   6601338.136  -1902068.653
10 0 59330  84942.000000  0    -346784.662   6309867.378  -2752207.909
10 0 59330  85062.000000  0    -144107.928   5904861.089  -3554034.364
10 0 59330  85182.000000  0      53061.113   5393534.217  -4293536.850
10 0 59330  85302.000000  0     239509.974   4785034.419  -4957828.280
10 0 59330  85422.000000  0     410394.977   4090266.458  -5535365.027
10 0 59330  85542.000000  0     561353.620   3321686.346  -6016139.616
99
